[{"OBJECT_NAME":"STARLINK-35310","OBJECT_ID":"2025-243G","EPOCH":"2026-03-09T17:05:49.110144","MEAN_MOTION":15.30197414,"ECCENTRICITY":8.497e-5,"INCLINATION":53.1576,"RA_OF_ASC_NODE":245.4025,"ARG_OF_PERICENTER":101.4855,"MEAN_ANOMALY":258.6242,"EPHEMERIS_TYPE":0,"CLASSIFICATION_TYPE":"U","NORAD_CAT_ID":66183,"ELEMENT_SET_NO":999,"REV_AT_EPOCH":2065,"BSTAR":0.00054925569,"MEAN_MOTION_DOT":0.00015942,"MEAN_MOTION_DDOT":0},{"OBJECT_NAME":"FENGYUN 1C DEB","OBJECT_ID":"1999-025EJQ","EPOCH":"2026-03-08T21:27:56.444256","MEAN_MOTION":15.23229897,"ECCENTRICITY":0.00101559,"INCLINATION":98.6645,"RA_OF_ASC_NODE":227.592,"ARG_OF_PERICENTER":263.6857,"MEAN_ANOMALY":96.3219,"EPHEMERIS_TYPE":0,"CLASSIFICATION_TYPE":"U","NORAD_CAT_ID":37470,"ELEMENT_SET_NO":999,"REV_AT_EPOCH":66762,"BSTAR":0.011057202,"MEAN_MOTION_DOT":0.00271626,"MEAN_MOTION_DDOT":0}]
